HORUS 2                 
1 55844U 23032A   26204.64354615  .00005858  00000+0  24905-3 0  9992
2 55844  97.3520 279.3090 0001641 134.5614 225.5758 15.23409740187038
GLOBAL-19               
1 55982U 23041B   26204.45361906  .00013853  00000+0  35791-3 0  9994
2 55982  42.0027 350.2649 0010431 269.3932  90.5712 15.38857698187514
ION SCV-010             
1 56192U 23054Q   26204.54477044  .00004662  00000+0  18101-3 0  9997
2 56192  97.3731  93.5797 0014577  78.3059 281.9814 15.26479857181749
TELEOS-2                
1 56310U 23057C   26204.61430006  .00005898  00000+0  44687-3 0  9997
2 56310   9.9893 298.9548 0000887 279.3034  80.7079 14.96424602178264
SNIPE 4                 
1 56744U 23072B   26204.59471697  .00024358  00000+0  54119-3 0  9996
2 56744  97.5229  51.7862 0005560 175.1457 184.9845 15.43667869175723
SNIPE 2                 
1 56745U 23072C   26204.59122679  .00031655  00000+0  59357-3 0  9997
2 56745  97.5217  55.0901 0004018 196.6850 163.4269 15.48587891175873
2023-072G               
1 56749U 23072G   26204.63067781  .00035578  00000+0  57994-3 0  9991
2 56749  97.4879  53.9801 0003227 178.5187 181.6076 15.52536836176113
GEISAT PRECURSOR        
1 56934U 23084C   26204.59677542  .00007663  00000+0  22739-3 0  9990
2 56934  97.6260 346.7699 0005226 197.0018 163.1051 15.35098204173111
BLACKJACK ACES-3        
1 56950U 23084U   26204.34359675  .00005043  00000+0  24545-3 0  9992
2 56950  97.6248 339.8264 0001420 185.6892 174.4326 15.18846301172659
BLACKJACK ACES-2        
1 56955U 23084Z   26204.61332528  .00006504  00000+0  31581-3 0  9996
2 56955  97.6245 340.1815 0002063 128.9892 231.1526 15.18813539172708
BLACKJACK ACES-1        
1 56956U 23084AA  26204.60077840  .00006964  00000+0  33785-3 0  9997
2 56956  97.6235 339.9396 0002239 109.1999 250.9478 15.18818416122420
ION SCV-011             
1 56957U 23084AB  26204.25636712  .00004900  00000+0  17626-3 0  9992
2 56957  98.1385  34.8875 0005781 271.4029  88.6546 15.29154245171328
GHOST-3                 
1 56958U 23084AC  26204.35188795  .00019859  00000+0  36784-3 0  9992
2 56958  97.6250 354.9034 0007262 158.2462 201.9098 15.49017511173618
AFR-1                   
1 56964U 23084AJ  26204.56093959  .00005043  00000+0  18260-3 0  9998
2 56964  97.6313 342.1443 0009886 202.7710 157.3092 15.28832442172783
METEOR-M2 3             
1 57166U 23091A   26204.63482265 -.00000014  00000+0  12578-4 0  9992
2 57166  98.6063 258.8632 0005033  71.4672 288.7054 14.24049423159700
UMKA 1 (RS40S)          
1 57172U 23091G   26204.60592986  .00005446  00000+0  24697-3 0  9995
2 57172  97.5031 263.1676 0012172   0.7781 359.3471 15.21189567169548
2023-091H               
1 57173U 23091H   26204.56958796  .00011332  00000+0  40019-3 0  9993
2 57173  97.5029 268.0702 0008689 355.4894   4.6266 15.29349542169869
2023-091J               
1 57174U 23091J   26204.60396944  .00003550  00000+0  19788-3 0  9992
2 57174  97.5037 257.1817 0013741  29.5420 330.6585 15.14156534169142
CUBEBEL 2 (EU11S)       
1 57175U 23091K   26204.55675782  .00012780  00000+0  44236-3 0  9998
2 57175  97.5031 268.1155 0008664 356.6939   3.4243 15.29975555169864
SITRO-AIS 5 (KATYS)     
1 57176U 23091L   26204.56749049  .00011848  00000+0  40732-3 0  9999
2 57176  97.5041 268.8282 0009801 341.5803  18.5081 15.30205817169902
ZORKIY-2M 1             
1 57177U 23091M   26204.58961107  .00006819  00000+0  30708-3 0  9997
2 57177  97.5072 263.4452 0012531 357.2181   2.8983 15.21327377169536
CUBESX-HSE 3 (RS42S)    
1 57178U 23091N   26204.56316580  .00013022  00000+0  42278-3 0  9994
2 57178  97.5073 270.6275 0008922 329.7570  30.3156 15.32039958169991
MONITOR-3 (RS58S)       
1 57180U 23091Q   26204.60453113  .00010312  00000+0  37395-3 0  9999
2 57180  97.5064 268.3304 0010164 338.5754  21.5059 15.28494284169855
MONITOR-4 (RS57S)       
1 57182U 23091S   26204.58154837  .00010737  00000+0  38818-3 0  9991
2 57182  97.5058 268.2804 0010149 339.0352  21.0470 15.28583152169852
MONITOR-2 (RS39S)       
1 57184U 23091U   26204.60793861  .00004238  00000+0  20433-3 0  9995
2 57184  97.5053 262.6579 0010536 355.1304   4.9826 15.19209526169486
SVYATOBOR 1 (RS60S)     
1 57187U 23091X   26204.56167356  .00008464  00000+0  32030-3 0  9998
2 57187  97.5070 268.5897 0007920 332.9779  27.1046 15.27166406169869
HORS 1                  
1 57188U 23091Y   26204.61001376  .00008766  00000+0  33043-3 0  9994
2 57188  97.5048 268.3961 0007388 333.0894  26.9961 15.27288622169872
VIZARD-METEO (RS38S)    
1 57189U 23091Z   26204.61571201  .00017138  00000+0  47394-3 0  9991
2 57189  97.5073 274.8554 0005171 302.2938  57.7805 15.37078712170280
SITRO-AIS 6 (CHIRKIN)   
1 57192U 23091AC  26204.56639231  .00009694  00000+0  37298-3 0  9997
2 57192  97.5050 267.7495 0010301 346.4664  13.6297 15.26553474169837
SITRO-AIS 8 (ANOKHIN)   
1 57193U 23091AD  26204.58448681  .00013636  00000+0  42918-3 0  9993
2 57193  97.5037 270.5862 0008712 335.9046  24.1787 15.33025353170025
