OBJECT_NAME,OBJECT_ID,EPOCH,MEAN_MOTION,ECCENTRICITY,INCLINATION,RA_OF_ASC_NODE,ARG_OF_PERICENTER,MEAN_ANOMALY,EPHEMERIS_TYPE,CLASSIFICATION_TYPE,NORAD_CAT_ID,ELEMENT_SET_NO,REV_AT_EPOCH,BSTAR,MEAN_MOTION_DOT,MEAN_MOTION_DDOT
HORUS 2,2023-032A,2026-07-23T15:26:42.387360,15.23409740,.00016413,97.3520,279.3090,134.5614,225.5758,0,U,55844,999,18703,.24905202E-3,.5858E-4,0
GLOBAL-19,2023-041B,2026-07-23T10:53:12.686784,15.38857698,.00104311,42.0027,350.2649,269.3932,90.5712,0,U,55982,999,18751,.35791039E-3,.13853E-3,0
ION SCV-010,2023-054Q,2026-07-23T13:04:28.166016,15.26479857,.00145775,97.3731,93.5797,78.3059,281.9814,0,U,56192,999,18174,.18101439E-3,.4662E-4,0
TELEOS-2,2023-057C,2026-07-23T14:44:35.525184,14.96424602,.00008874,9.9893,298.9548,279.3034,80.7079,0,U,56310,999,17826,.44687287E-3,.5898E-4,0
SNIPE 4,2023-072B,2026-07-23T14:16:23.546208,15.43667869,.00055605,97.5229,51.7862,175.1457,184.9845,0,U,56744,999,17572,.54118503E-3,.24358E-3,0
SNIPE 2,2023-072C,2026-07-23T14:11:21.994656,15.48587891,.00040182,97.5217,55.0901,196.6850,163.4269,0,U,56745,999,17587,.59357305E-3,.31655E-3,0
2023-072G,2023-072G,2026-07-23T15:08:10.562784,15.52536836,.0003227,97.4879,53.9801,178.5187,181.6076,0,U,56749,999,17611,.57994201E-3,.35578E-3,0
GEISAT PRECURSOR,2023-084C,2026-07-23T14:19:21.396288,15.35098204,.00052263,97.6260,346.7699,197.0018,163.1051,0,U,56934,999,17311,.2273943E-3,.7663E-4,0
BLACKJACK ACES-3,2023-084U,2026-07-23T08:14:46.759200,15.18846301,.00014204,97.6248,339.8264,185.6892,174.4326,0,U,56950,999,17265,.24545163E-3,.5043E-4,0
BLACKJACK ACES-2,2023-084Z,2026-07-23T14:43:11.304192,15.18813539,.00020631,97.6245,340.1815,128.9892,231.1526,0,U,56955,999,17270,.31581129E-3,.6504E-4,0
BLACKJACK ACES-1,2023-084AA,2026-07-23T14:25:07.253760,15.18818416,.00022399,97.6235,339.9396,109.1999,250.9478,0,U,56956,999,12242,.33785292E-3,.6964E-4,0
ION SCV-011,2023-084AB,2026-07-23T06:09:10.119168,15.29154245,.0005781,98.1385,34.8875,271.4029,88.6546,0,U,56957,999,17132,.17625997E-3,.49E-4,0
GHOST-3,2023-084AC,2026-07-23T08:26:43.118880,15.49017511,.00072626,97.6250,354.9034,158.2462,201.9098,0,U,56958,999,17361,.3678377E-3,.19859E-3,0
AFR-1,2023-084AJ,2026-07-23T13:27:45.180576,15.28832442,.00098868,97.6313,342.1443,202.7710,157.3092,0,U,56964,999,17278,.18260437E-3,.5043E-4,0
METEOR-M2 3,2023-091A,2026-07-23T15:14:08.676960,14.24049423,.00050331,98.6063,258.8632,71.4672,288.7054,0,U,57166,999,15970,.12577598E-4,-.14E-6,0
UMKA 1 (RS40S),2023-091G,2026-07-23T14:32:32.339904,15.21189567,.00121727,97.5031,263.1676,0.7781,359.3471,0,U,57172,999,16954,.24696867E-3,.5446E-4,0
2023-091H,2023-091H,2026-07-23T13:40:12.399744,15.29349542,.00086898,97.5029,268.0702,355.4894,4.6266,0,U,57173,999,16986,.40019042E-3,.11332E-3,0
2023-091J,2023-091J,2026-07-23T14:29:42.959616,15.14156534,.00137413,97.5037,257.1817,29.5420,330.6585,0,U,57174,999,16914,.19788495E-3,.355E-4,0
CUBEBEL 2 (EU11S),2023-091K,2026-07-23T13:21:43.875648,15.29975555,.0008664,97.5031,268.1155,356.6939,3.4243,0,U,57175,999,16986,.44235563E-3,.1278E-3,0
SITRO-AIS 5 (KATYS),2023-091L,2026-07-23T13:37:11.178336,15.30205817,.00098012,97.5041,268.8282,341.5803,18.5081,0,U,57176,999,16990,.40732365E-3,.11848E-3,0
ZORKIY-2M 1,2023-091M,2026-07-23T14:09:02.396448,15.21327377,.00125312,97.5072,263.4452,357.2181,2.8983,0,U,57177,999,16953,.30708222E-3,.6819E-4,0
CUBESX-HSE 3 (RS42S),2023-091N,2026-07-23T13:30:57.525120,15.32039958,.00089224,97.5073,270.6275,329.7570,30.3156,0,U,57178,999,16999,.42278401E-3,.13022E-3,0
MONITOR-3 (RS58S),2023-091Q,2026-07-23T14:30:31.489632,15.28494284,.00101643,97.5064,268.3304,338.5754,21.5059,0,U,57180,999,16985,.37394662E-3,.10312E-3,0
MONITOR-4 (RS57S),2023-091S,2026-07-23T13:57:25.779168,15.28583152,.0010149,97.5058,268.2804,339.0352,21.0470,0,U,57182,999,16985,.38818133E-3,.10737E-3,0
MONITOR-2 (RS39S),2023-091U,2026-07-23T14:35:25.895904,15.19209526,.0010536,97.5053,262.6579,355.1304,4.9826,0,U,57184,999,16948,.20432914E-3,.4238E-4,0
SVYATOBOR 1 (RS60S),2023-091X,2026-07-23T13:28:48.595584,15.27166406,.00079207,97.5070,268.5897,332.9779,27.1046,0,U,57187,999,16986,.32029916E-3,.8464E-4,0
HORS 1,2023-091Y,2026-07-23T14:38:25.188864,15.27288622,.0007388,97.5048,268.3961,333.0894,26.9961,0,U,57188,999,16987,.33043421E-3,.8766E-4,0
VIZARD-METEO (RS38S),2023-091Z,2026-07-23T14:46:37.517664,15.37078712,.00051714,97.5073,274.8554,302.2938,57.7805,0,U,57189,999,17028,.47393963E-3,.17138E-3,0
SITRO-AIS 6 (CHIRKIN),2023-091AC,2026-07-23T13:35:36.295584,15.26553474,.00103019,97.5050,267.7495,346.4664,13.6297,0,U,57192,999,16983,.37298318E-3,.9694E-4,0
SITRO-AIS 8 (ANOKHIN),2023-091AD,2026-07-23T14:01:39.660384,15.33025353,.00087125,97.5037,270.5862,335.9046,24.1787,0,U,57193,999,17002,.42917578E-3,.13636E-3,0
